[{"OBJECT_NAME":"STARLINK-31260","OBJECT_ID":"2024-020F","EPOCH":"2026-03-09T21:22:23.717856","MEAN_MOTION":15.30200171,"ECCENTRICITY":1.897e-5,"INCLINATION":53.1625,"RA_OF_ASC_NODE":321.3594,"ARG_OF_PERICENTER":190.3877,"MEAN_ANOMALY":169.712,"EPHEMERIS_TYPE":0,"CLASSIFICATION_TYPE":"U","NORAD_CAT_ID":58881,"ELEMENT_SET_NO":999,"REV_AT_EPOCH":11810,"BSTAR":0.0001446134,"MEAN_MOTION_DOT":3.927e-5,"MEAN_MOTION_DDOT":0},{"OBJECT_NAME":"GB 1","OBJECT_ID":"1983-056C","EPOCH":"2026-03-09T15:35:32.481600","MEAN_MOTION":13.78372102,"ECCENTRICITY":0.07333204,"INCLINATION":63.3105,"RA_OF_ASC_NODE":168.7083,"ARG_OF_PERICENTER":129.9554,"MEAN_ANOMALY":236.8304,"EPHEMERIS_TYPE":0,"CLASSIFICATION_TYPE":"U","NORAD_CAT_ID":14143,"ELEMENT_SET_NO":999,"REV_AT_EPOCH":33291,"BSTAR":0.00056594387,"MEAN_MOTION_DOT":4.698e-5,"MEAN_MOTION_DDOT":0}]
